QIANFAN-65              
1 62795U 25016L   25342.28668294  .00000207  00000+0  30137-3 0  9999
2 62795  88.9759 103.5188 0013474   2.9622 357.1606 13.50982792 46647
QIANFAN-66              
1 62796U 25016M   25342.31544054  .00000197  00000+0  28725-3 0  9999
2 62796  88.9779 103.4851 0014448 357.7571   2.3513 13.50975546 46692
QIANFAN-67              
1 62797U 25016N   25342.31970758  .00000207  00000+0  30250-3 0  9992
2 62797  88.9769 103.5107 0014614   4.8721 355.2569 13.50979769 46668
QIANFAN-68              
1 62798U 25016P   25342.31141015  .00000208  00000+0  30383-3 0  9997
2 62798  88.9773 103.5565 0014619   3.0454 357.0784 13.50982114 46646
QIANFAN-69              
1 62799U 25016Q   25342.32791350  .00000209  00000+0  30502-3 0  9996
2 62799  88.9751 103.4252 0015399   3.8412 356.2854 13.50984993 46683
QIANFAN-70              
1 62800U 25016R   25342.27024262  .00000210  00000+0  30697-3 0  9991
2 62800  88.9772 103.5687 0014741 354.2216   5.8763 13.50975810 46636
QIANFAN-71              
1 62801U 25016S   25342.26610613  .00000203  00000+0  29529-3 0  9996
2 62801  88.9766 103.5489 0015424   7.6654 352.4730 13.50982912 46630
QIANFAN-72              
1 62802U 25016T   25342.28258007  .00000196  00000+0  28411-3 0  9994
2 62802  88.9757 103.5610 0018886  13.8126 346.3538 13.50982875 46620
